OBJECT_NAME,OBJECT_ID,EPOCH,MEAN_MOTION,ECCENTRICITY,INCLINATION,RA_OF_ASC_NODE,ARG_OF_PERICENTER,MEAN_ANOMALY,EPHEMERIS_TYPE,CLASSIFICATION_TYPE,NORAD_CAT_ID,ELEMENT_SET_NO,REV_AT_EPOCH,BSTAR,MEAN_MOTION_DOT,MEAN_MOTION_DDOT
QIANFAN-238,2026-155V,2026-07-18T20:52:04.776672,14.26786059,.0030495,89.0064,60.5274,211.2038,148.7347,0,U,69867,999,190,.64383691E-4,.171E-5,0
CZ-8A R/B,2026-155W,2026-07-18T21:07:40.417824,14.48271159,.01064503,88.9656,60.4466,90.7210,270.6194,0,U,69868,999,192,.44744158E-4,.199E-5,0
STARLINK-37886,2026-157A,2026-07-18T22:00:01.999584,15.80903184,.00010073,53.1592,277.1810,73.5274,336.4221,0,U,69943,999,275,-.38075804E-3,-.753E-3,0
STARLINK-37937,2026-157B,2026-07-18T22:00:01.999584,15.80884083,.00012429,53.1621,277.1623,65.5197,353.5094,0,U,69944,999,275,-.12788613E-3,-.25877E-3,0
STARLINK-37903,2026-157C,2026-07-18T22:00:01.999584,15.80893359,.00010457,53.1592,277.1527,91.2871,332.2740,0,U,69945,999,275,-.30198966E-3,-.59945E-3,0
STARLINK-37905,2026-157D,2026-07-18T22:00:01.999584,15.80900682,.00004824,53.1619,277.1129,87.4556,355.3799,0,U,69946,999,275,-.32433656E-3,-.64314E-3,0
STARLINK-37904,2026-157E,2026-07-18T22:00:01.999584,15.81044590,.00006464,53.1617,277.1049,83.4676,3.2844,0,U,69947,999,275,-.11957134E-2,-.232282E-2,0
STARLINK-37891,2026-157F,2026-07-18T22:00:01.999584,15.80919222,.00007501,53.1592,277.0957,76.3077,14.7156,0,U,69948,999,275,-.46392417E-3,-.91489E-3,0
STARLINK-37923,2026-157G,2026-07-18T22:00:01.999584,15.80916186,.00007649,53.1597,277.0600,80.6253,27.5037,0,U,69949,999,275,-.42742276E-3,-.84403E-3,0
STARLINK-37895,2026-157H,2026-07-18T22:00:01.999584,15.80925229,.00009501,53.1597,277.0446,77.4931,38.0814,0,U,69950,999,275,-.46105702E-3,-.90961E-3,0
STARLINK-37841,2026-157J,2026-07-18T22:00:01.999584,15.80904794,.0001168,53.1595,277.0207,78.1327,48.8922,0,U,69951,999,275,-.44103107E-3,-.87001E-3,0
STARLINK-37899,2026-157K,2026-07-18T22:00:01.999584,15.80897816,.00005548,53.1596,276.9979,87.6513,50.5117,0,U,69952,999,275,-.26407149E-3,-.52558E-3,0
STARLINK-37900,2026-157L,2026-07-18T22:00:01.999584,15.80882163,.00013554,53.1598,276.9898,80.2320,61.7767,0,U,69953,999,275,-.20922021E-3,-.41812E-3,0
STARLINK-37882,2026-157M,2026-07-18T22:00:01.999584,15.80895512,.00012449,53.1597,276.9673,67.2110,85.6124,0,U,69954,999,275,-.33874276E-3,-.67109E-3,0
STARLINK-37928,2026-157N,2026-07-18T22:00:01.999584,15.80888217,.00009586,53.1597,276.9657,66.2814,87.2337,0,U,69955,999,275,-.31363087E-3,-.62198E-3,0
STARLINK-37824,2026-157P,2026-07-18T22:00:01.999584,15.80850416,.00014195,53.1596,276.9631,103.8246,51.0484,0,U,69956,999,275,-.18650118E-4,-.4375E-4,0
STARLINK-37919,2026-157Q,2026-07-18T22:00:01.999584,15.80890146,.00006516,53.1596,276.9611,74.0774,81.8357,0,U,69957,999,275,-.30173233E-3,-.59883E-3,0
STARLINK-37964,2026-157R,2026-07-18T22:00:01.999584,15.80843819,.00002635,53.1596,276.9476,96.6143,65.7193,0,U,69958,999,275,.16495943E-3,.31936E-3,0
STARLINK-37907,2026-157S,2026-07-18T22:00:01.999584,15.80916952,.00013586,53.1595,276.9266,48.6476,123.8127,0,U,69959,999,275,-.49949562E-3,-.98371E-3,0
STARLINK-37901,2026-157T,2026-07-18T22:00:01.999584,15.80889698,.00006407,53.1596,276.9128,72.1429,106.9470,0,U,69960,999,275,-.29171191E-3,-.57929E-3,0
STARLINK-37910,2026-157U,2026-07-18T22:00:01.999584,15.80867494,.00008244,53.1595,276.8941,48.9302,139.2328,0,U,69961,999,275,-.13784286E-3,-.27809E-3,0
STARLINK-37925,2026-157V,2026-07-18T22:00:01.999584,15.80841178,.00008666,53.1594,276.8901,26.7712,163.3708,0,U,69962,999,275,.76835056E-4,.1447E-3,0
STARLINK-37931,2026-157W,2026-07-18T22:00:01.999584,15.80830886,.00003418,53.1596,276.8831,85.2962,108.1054,0,U,69963,999,275,.16173804E-3,.31277E-3,0
STARLINK-37914,2026-157X,2026-07-18T22:00:01.999584,15.81008476,.00010816,53.1593,276.8482,80.3411,129.5585,0,U,69964,999,275,-.13134054E-2,-.254038E-2,0
STARLINK-37840,2026-157Y,2026-07-18T22:00:01.999584,15.82860094,.00007912,53.1588,276.8161,70.4373,154.9975,0,U,69965,999,275,-.12183842E-1,-.229607E-1,0
STARLINK-37894,2026-157Z,2026-07-18T22:00:01.999584,15.81232478,.00013422,53.1588,276.8277,64.3264,155.5184,0,U,69966,999,275,-.30099923E-2,-.566833E-2,0
STARLINK-37875,2026-157AA,2026-07-18T22:00:01.999584,15.81739144,.00010765,53.1590,276.8072,54.1615,175.5289,0,U,69967,999,275,-.6536234E-2,-.1195297E-1,0
STARLINK-36218,2026-157AB,2026-07-18T22:00:01.999584,15.82896232,.00012447,53.1587,276.7817,73.2220,168.5530,0,U,69968,999,240,-.11980782E-1,-.226676E-1,0
STARLINK-37921,2026-157AC,2026-07-18T22:00:01.999584,15.83394552,.00011721,53.1585,276.7462,80.9464,177.9512,0,U,69969,999,275,-.11485918E-1,-.2180025E-1,0
STARLINK-37896,2026-157AD,2026-07-18T22:00:01.999584,15.83361385,.00012363,53.1586,276.7437,112.3001,147.7803,0,U,69970,999,275,-.11758098E-1,-.2273614E-1,0
